[{"OBJECT_NAME":"STARLINK-30322","OBJECT_ID":"2023-124H","EPOCH":"2026-03-09T16:52:47.664480","MEAN_MOTION":15.30188184,"ECCENTRICITY":0.0001278,"INCLINATION":53.1606,"RA_OF_ASC_NODE":207.0037,"ARG_OF_PERICENTER":66.9385,"MEAN_ANOMALY":293.1751,"EPHEMERIS_TYPE":0,"CLASSIFICATION_TYPE":"U","NORAD_CAT_ID":57670,"ELEMENT_SET_NO":999,"REV_AT_EPOCH":14356,"BSTAR":-9.648594e-6,"MEAN_MOTION_DOT":-6.45e-6,"MEAN_MOTION_DDOT":0},{"OBJECT_NAME":"LIZZIESAT-2 (LS-2)","OBJECT_ID":"2024-247G","EPOCH":"2026-03-09T11:47:37.199328","MEAN_MOTION":15.28222796,"ECCENTRICITY":0.00040927,"INCLINATION":44.9909,"RA_OF_ASC_NODE":117.0823,"ARG_OF_PERICENTER":327.5136,"MEAN_ANOMALY":32.5495,"EPHEMERIS_TYPE":0,"CLASSIFICATION_TYPE":"U","NORAD_CAT_ID":62383,"ELEMENT_SET_NO":999,"REV_AT_EPOCH":6771,"BSTAR":0.00034516624,"MEAN_MOTION_DOT":9.388e-5,"MEAN_MOTION_DDOT":0}]
