STARLINK-30322          
1 57670U 23124H   26068.70332945 -.00000645  00000+0 -96486-5 0  9996
2 57670  53.1606 207.0037 0001278  66.9385 293.1751 15.30188184143568
LIZZIESAT-2 (LS-2)      
1 62383U 24247G   26068.49140277  .00009388  00000+0  34517-3 0  9997
2 62383  44.9909 117.0823 0004092 327.5136  32.5495 15.28222796 67716
